0 SL-16 DEB
1 22578U 93016F   13282.42836770  .00000276  00000-0  82272-4 0   931
2 22578 071.0664 335.0418 0115179 180.5751 306.7460 14.48196720 83655
0 SL-16 DEB
1 22578U 93016F   13286.64396013  .00000321  00000-0  93347-4 0   958
2 22578 071.0655 325.7255 0114879 173.7327 324.8077 14.48199264 84268
0 SL-16 DEB
1 22578U 93016F   13288.78085885  .00000364  00000-0  10394-3 0   965
2 22578 071.0652 321.0028 0114727 170.2614 305.5868 14.48202071 84574
0 SL-16 DEB
1 22578U 93016F   13291.18392394  .00000272  00000-0  81215-4 0   979
2 22578 071.0652 315.6915 0114562 166.3515 234.0601 14.48204216 84924
0 SL-16 DEB
1 22578U 93016F   13293.19241002  .00000325  00000-0  94481-4 0   980
2 22578 071.0652 311.2521 0114402 163.0779 265.4005 14.48205304 85216
0 SL-16 DEB
1 22578U 93016F   13295.47302208  .00000384  00000-0  10907-3 0   995
2 22578 071.0652 306.2116 0114247 159.3506 275.5064 14.48207320 85546
